NORAD_CAT_ID,OBJECT_NAME,OBJECT_TYPE,EPOCH,MEAN_MOTION,ECCENTRICITY,INCLINATION,RA_OF_ASC_NODE,ARG_OF_PERICENTER,MEAN_ANOMALY,BSTAR,MEAN_MOTION_DOT,MEAN_MOTION_DDOT,TLE_LINE0,TLE_LINE1,TLE_LINE2,SEMIMAJOR_AXIS,PERIOD,APOGEE,PERIGEE,DECAYED
53774.0,STARLINK-4719,PAYLOAD,2024-08-12 07:07:29,15.0885178,0.0001232,53.2168,342.5564,85.1584,274.9549,0.0002105,3.065e-05,0.0,0 STARLINK-4719,1 53774U 22111B   24225.29686885  .00003065  00000-0  21050-3 0  9995,2 53774  53.2168 342.5564 0001232  85.1584 274.9549 15.08851780106034,6917.844,95.437,540.562,538.857,0.0
53774.0,STARLINK-4719,PAYLOAD,2024-08-12 15:04:23,15.0888344,0.0002329,53.2186,341.0719,102.114,258.0114,0.00078704,0.00012275,0.0,0 STARLINK-4719,1 53774U 22111B   24225.62805319  .00012275  00000-0  78704-3 0  9998,2 53774  53.2186 341.0719 0002329 102.1140 258.0114 15.08883440107047,6917.748,95.435,541.224,538.001,0.0
53774.0,STARLINK-4719,PAYLOAD,2024-08-12 18:15:09,15.08891534,0.0002681,53.218,340.4752,98.6676,261.462,0.00086267,0.00013488,0.0,0 STARLINK-4719,1 53774U 22111B   24225.76052723  .00013488  00000-0  86267-3 0  9996,2 53774  53.2180 340.4752 0002681  98.6676 261.4620 15.08891534106104,6917.723,95.434,541.443,537.733,0.0
53774.0,STARLINK-4719,PAYLOAD,2024-08-13 00:36:43,15.08852289,0.0003219,53.2183,339.2791,75.8749,284.2601,3.5375e-06,-2.33e-06,0.0,0 STARLINK-4719,1 53774U 22111B   24226.02549932 -.00000233  00000-0  35375-5 0  9990,2 53774  53.2183 339.2791 0003219  75.8749 284.2601 15.08852289106142,6917.843,95.437,541.935,537.481,0.0
53774.0,STARLINK-4719,PAYLOAD,2024-08-13 08:33:41,15.08761706,0.0001223,53.2157,337.7963,92.1487,267.9645,-0.0020002,-0.00031912,0.0,0 STARLINK-4719,1 53774U 22111B   24226.35672880 -.00031912  00000-0 -20002-2 0  9992,2 53774  53.2157 337.7963 0001223  92.1487 267.9645 15.08761706106195,6918.12,95.443,540.831,539.139,0.0
53774.0,STARLINK-4719,PAYLOAD,2024-08-13 16:30:38,15.08766095,0.000116,53.2145,336.3081,103.9949,256.1173,-0.0014841,-0.00023782,0.0,0 STARLINK-4719,1 53774U 22111B   24226.68794048 -.00023782  00000-0 -14841-2 0  9999,2 53774  53.2145 336.3081 0001160 103.9949 256.1173 15.08766095106240,6918.106,95.442,540.774,539.169,0.0
53774.0,STARLINK-4719,PAYLOAD,2024-08-14 13:10:37,15.08857737,0.0001432,53.2171,332.4436,93.8547,266.2609,0.00072887,0.00011337,0.0,0 STARLINK-4719,1 53774U 22111B   24227.54904679  .00011337  00000-0  72887-3 0  9994,2 53774  53.2171 332.4436 0001432  93.8547 266.2609 15.08857737106377,6917.826,95.436,540.682,538.701,0.0
53774.0,STARLINK-4719,PAYLOAD,2024-08-14 14:46:00,15.0886104,0.0001396,53.2173,332.1464,92.4938,267.6214,0.00082707,0.00012907,0.0,0 STARLINK-4719,1 53774U 22111B   24227.61528581  .00012907  00000-0  82707-3 0  9992,2 53774  53.2173 332.1464 0001396  92.4938 267.6214 15.08861040107342,6917.816,95.436,540.647,538.715,0.0
53774.0,STARLINK-4719,PAYLOAD,2024-08-14 19:32:10,15.08863841,0.0001889,53.2178,331.2499,91.1077,269.0132,0.0012212,0.00019214,0.0,0 STARLINK-4719,1 53774U 22111B   24227.81400683  .00019214  00000-0  12212-2 0  9997,2 53774  53.2178 331.2499 0001889  91.1077 269.0132 15.08863841107371,6917.808,95.436,540.979,538.366,0.0
53774.0,STARLINK-4719,PAYLOAD,2024-08-15 00:18:20,15.08824018,0.0001776,53.2193,330.3559,98.4435,261.6759,0.00030179,4.516e-05,0.0,0 STARLINK-4719,1 53774U 22111B   24228.01273962  .00004516  00000-0  30179-3 0  9990,2 53774  53.2193 330.3559 0001776  98.4435 261.6759 15.08824018106441,6917.929,95.439,541.023,538.566,0.0
53774.0,STARLINK-4719,PAYLOAD,2024-08-15 13:01:25,15.08832228,5.67e-05,53.2177,327.9842,256.7641,103.3288,0.00049508,7.599e-05,0.0,0 STARLINK-4719,1 53774U 22111B   24228.54265465  .00007599  00000-0  49508-3 0  9997,2 53774  53.2177 327.9842 0000567 256.7641 103.3288 15.08832228107481,6917.904,95.438,540.161,539.377,0.0
53774.0,STARLINK-4719,PAYLOAD,2024-08-15 19:22:58,15.08833575,3.91e-05,53.2197,326.7939,252.1739,107.9211,0.00059703,9.225e-05,0.0,0 STARLINK-4719,1 53774U 22111B   24228.80761876  .00009225  00000-0  59703-3 0  9999,2 53774  53.2197 326.7939 0000391 252.1739 107.9211 15.08833575107527,6917.9,95.438,540.036,539.495,0.0
53774.0,STARLINK-4719,PAYLOAD,2024-08-17 06:21:26,15.08836104,0.0001215,53.2171,320.2498,101.5337,258.5791,-0.00011085,-2.051e-05,0.0,0 STARLINK-4719,1 53774U 22111B   24230.26488633 -.00002051  00000-0 -11085-3 0  9992,2 53774  53.2171 320.2498 0001215 101.5337 258.5791 15.08836104106789,6917.892,95.438,540.598,538.917,0.0
53774.0,STARLINK-4719,PAYLOAD,2024-08-18 06:12:12,15.08850863,0.0001215,53.2161,315.7912,87.367,272.7461,0.00014773,2.065e-05,0.0,0 STARLINK-4719,1 53774U 22111B   24231.25847783  .00002065  00000-0  14773-3 0  9997,2 53774  53.2161 315.7912 0001215  87.3670 272.7461 15.08850863107892,6917.847,95.437,540.553,538.872,0.0
53774.0,STARLINK-4719,PAYLOAD,2024-08-18 12:33:44,15.08857957,0.0001308,53.2181,314.6021,107.6932,252.4203,0.00045021,6.888e-05,0.0,0 STARLINK-4719,1 53774U 22111B   24231.52343502  .00006888  00000-0  45021-3 0  9994,2 53774  53.2181 314.6021 0001308 107.6932 252.4203 15.08857957106971,6917.826,95.436,540.595,538.786,0.0
53774.0,STARLINK-4719,PAYLOAD,2024-08-19 10:49:09,15.08837259,0.000114,53.2175,310.4382,98.5799,261.5322,-6.864e-05,-1.38e-05,0.0,0 STARLINK-4719,1 53774U 22111B   24232.45080263 -.00001380  00000-0 -68640-4 0  9996,2 53774  53.2175 310.4382 0001140  98.5799 261.5322 15.08837259107114,6917.889,95.438,540.542,538.965,0.0
53774.0,STARLINK-4719,PAYLOAD,2024-08-20 12:15:19,15.08851096,0.0001153,53.2167,305.6777,96.0646,264.0478,0.00020215,2.932e-05,0.0,0 STARLINK-4719,1 53774U 22111B   24233.51063749  .00002932  00000-0  20215-3 0  9991,2 53774  53.2167 305.6777 0001153  96.0646 264.0478 15.08851096107279,6917.846,95.437,540.509,538.914,0.0
53774.0,STARLINK-4719,PAYLOAD,2024-08-21 04:09:11,15.08842155,0.0001679,53.2173,302.7151,53.843,306.2718,0.00028065,4.182e-05,0.0,0 STARLINK-4719,1 53774U 22111B   24234.17304617  .00004182  00000-0  28065-3 0  9996,2 53774  53.2173 302.7151 0001679  53.8430 306.2718 15.08842155107378,6917.874,95.437,540.9,538.577,0.0
53774.0,STARLINK-4719,PAYLOAD,2024-08-21 12:06:07,15.08834944,0.0001577,53.2173,301.2221,59.988,300.1268,0.00013892,1.923e-05,0.0,0 STARLINK-4719,1 53774U 22111B   24234.50425022  .00001923  00000-0  13892-3 0  9999,2 53774  53.2173 301.2221 0001577  59.9880 300.1268 15.08834944107429,6917.896,95.438,540.852,538.67,0.0
